[{"OBJECT_NAME":"GMS-T","OBJECT_ID":"2021-004A","EPOCH":"2026-03-09T21:58:54.862464","MEAN_MOTION":13.16656588,"ECCENTRICITY":0.00016531,"INCLINATION":90.1169,"RA_OF_ASC_NODE":240.6396,"ARG_OF_PERICENTER":357.5234,"MEAN_ANOMALY":2.5889,"EPHEMERIS_TYPE":0,"CLASSIFICATION_TYPE":"U","NORAD_CAT_ID":47346,"ELEMENT_SET_NO":999,"REV_AT_EPOCH":24653,"BSTAR":0.00013651536,"MEAN_MOTION_DOT":6.0e-7,"MEAN_MOTION_DDOT":0},{"OBJECT_NAME":"ONEWEB-0304","OBJECT_ID":"2021-075T","EPOCH":"2026-03-09T22:04:29.304768","MEAN_MOTION":13.17649847,"ECCENTRICITY":0.0001885,"INCLINATION":87.9156,"RA_OF_ASC_NODE":25.5802,"ARG_OF_PERICENTER":75.7343,"MEAN_ANOMALY":284.3997,"EPHEMERIS_TYPE":0,"CLASSIFICATION_TYPE":"U","NORAD_CAT_ID":49092,"ELEMENT_SET_NO":999,"REV_AT_EPOCH":22050,"BSTAR":-5.20383e-6,"MEAN_MOTION_DOT":1.1e-7,"MEAN_MOTION_DDOT":0}]
